OBJECT_NAME,OBJECT_ID,EPOCH,MEAN_MOTION,ECCENTRICITY,INCLINATION,RA_OF_ASC_NODE,ARG_OF_PERICENTER,MEAN_ANOMALY,EPHEMERIS_TYPE,CLASSIFICATION_TYPE,NORAD_CAT_ID,ELEMENT_SET_NO,REV_AT_EPOCH,BSTAR,MEAN_MOTION_DOT,MEAN_MOTION_DDOT
SIRION PATHFINDER-2,2018-099B,2026-06-09T09:15:10.276704,15.14480438,.00077721,97.4257,209.6286,336.7135,23.3744,0,U,43759,999,41144,.20741841E-3,.3754E-4,0
CORVUS BC4,2018-099K,2026-06-09T09:09:24.892704,15.12433449,.00091014,97.4073,203.5906,38.7659,321.4224,0,U,43767,999,41122,.21846594E-3,.3736E-4,0
M2 PATHFINDER,2020-037E,2026-06-09T11:10:34.006368,15.04644400,.00117577,97.8161,351.6108,171.8469,188.2950,0,U,45727,999,32433,.17035879E-3,.2333E-4,0
NETSAT-4,2020-068U,2026-06-09T12:58:56.212896,15.43610520,.00048414,97.8610,168.1684,9.8772,350.2568,0,U,46504,999,31459,.36525146E-3,.16354E-3,0
NETSAT-3,2020-068V,2026-06-09T12:59:28.509216,15.42413484,.00052882,97.8659,166.3950,28.3279,331.8253,0,U,46505,999,31450,.38588349E-3,.16604E-3,0
NETSAT-1,2020-068W,2026-06-09T12:08:55.084704,15.34460416,.00059187,97.8747,160.7785,54.1491,306.0300,0,U,46506,999,31412,.34997718E-3,.11604E-3,0
NETSAT-2,2020-068X,2026-06-09T12:38:20.114880,15.45668742,.00044766,97.8624,168.0200,47.3203,312.8421,0,U,46507,999,31455,.42234354E-3,.20305E-3,0
GREENCUBE (IO-117),2022-080E,2026-06-01T11:09:37.753056,6.42583280,.00088692,70.1435,303.7143,293.3663,66.6064,0,U,53109,999,9105,0,-.3E-7,0
SITRO-AIS 5 (KATYS),2023-091L,2026-06-09T13:05:49.714656,15.29278742,.0012727,97.5064,224.3733,127.0918,233.1487,0,U,57176,999,16317,.39496607E-3,.11173E-3,0
SITRO-AIS 6 (CHIRKIN),2023-091AC,2026-06-09T12:10:14.148480,15.25787932,.00129941,97.5073,223.4940,130.1824,230.0554,0,U,57192,999,16311,.37104914E-3,.9431E-4,0
SITRO-AIS 8 (ANOKHIN),2023-091AD,2026-06-09T12:15:24.331392,15.31922554,.0011846,97.5061,225.8955,123.3287,236.9091,0,U,57193,999,16327,.42189529E-3,.12959E-3,0
SITRO-AIS 7 (FARTUSHNIY),2023-091AE,2026-06-09T12:12:31.165920,15.25478306,.00128107,97.5070,223.3244,131.0270,229.2077,0,U,57194,999,16310,.36125029E-3,.9094E-4,0
SITRO-AIS 10 (BURDAEV),2023-091AK,2026-06-09T12:13:23.291040,15.38316401,.00078919,97.5083,230.8696,102.8746,257.3381,0,U,57199,999,16358,.47882013E-3,.18037E-3,0
SITRO-AIS 9 (SHCHUKIN),2023-091AM,2026-06-09T12:47:55.353984,15.37838750,.00081255,97.5081,230.6302,102.7336,257.4817,0,U,57201,999,16357,.49039953E-3,.18192E-3,0
SITRO-AIS 12 (SMIRENNIY),2023-091AQ,2026-06-09T12:36:29.796768,15.38127778,.00077229,97.5094,231.0842,97.8271,262.3851,0,U,57204,999,16359,.4613003E-3,.17265E-3,0
SITRO-AIS 11 (SHEFFER),2023-091AU,2026-06-09T12:58:50.781792,15.38547390,.00076223,97.5093,231.3419,97.7360,262.4751,0,U,57208,999,16361,.49934595E-3,.18957E-3,0
SITRO-AIS 25,2024-039R,2026-06-09T14:30:06.151104,14.93473878,.0144429,95.3912,229.8817,355.4592,4.5312,0,U,59066,999,12359,.24267151E-3,.3099E-4,0
SITRO-AIS 26,2024-039S,2026-06-09T14:30:35.546112,14.93271006,.01447786,95.3913,229.7811,356.0336,3.9729,0,U,59067,999,12358,.24925927E-3,.317E-4,0
SITRO-AIS 27,2024-039T,2026-06-09T15:27:15.953760,14.93687919,.01438488,95.3913,230.0765,354.4793,5.4838,0,U,59068,999,12361,.2139397E-3,.2739E-4,0
SITRO-AIS 28,2024-039U,2026-06-09T14:55:01.666848,14.93723827,.01436993,95.3917,230.1078,354.4588,5.5039,0,U,59071,999,12361,.21107201E-3,.2704E-4,0
GRBBETA,2024-128C,2026-06-09T12:30:32.214816,15.06588239,.00416736,61.9898,243.1615,133.0330,227.4266,0,U,60237,999,10511,.23080171E-3,.3281E-4,0
OOV-CUBE (TUBSAT-30),2024-128F,2026-06-09T12:52:32.983968,15.02741636,.00455838,61.9950,252.2499,132.0465,228.4520,0,U,60240,999,10496,.17278732E-3,.2156E-4,0
ROBUSTA-3A (MEDITERRANEE),2024-128J,2026-06-09T12:39:55.814976,15.11585372,.00421805,61.9859,235.3282,126.5118,233.9874,0,U,60243,999,10526,.37064283E-3,.6234E-4,0
LASARSAT,2024-247Q,2026-06-09T10:00:33.993504,15.45882865,.00083769,44.9749,305.8624,288.2442,71.7536,0,U,62391,999,8211,.63095039E-3,.31151E-3,0
CROCUBE,2024-247T,2026-06-09T13:16:46.504992,15.47713214,.00082062,44.9723,302.5533,292.5948,67.4074,0,U,62394,999,8216,.66095238E-3,.34818E-3,0
FORESAIL-1 PRIME,2025-276DS,2026-06-09T11:38:40.536096,15.18631711,.00037588,97.4201,233.8975,119.3336,240.8275,0,U,66778,999,2923,.2356221E-3,.4812E-4,0
KNACKSAT-2,1998-067XZ,2026-06-09T05:06:42.455232,15.59248117,.0010139,51.6310,334.5675,180.3402,179.7586,0,U,67683,999,1903,.55732E-3,.44471E-3,0
