SIRION PATHFINDER-2     
1 43759U 18099B   26160.38553561  .00003754  00000+0  20742-3 0  9992
2 43759  97.4257 209.6286 0007772 336.7135  23.3744 15.14480438411443
CORVUS BC4              
1 43767U 18099K   26160.38153811  .00003736  00000+0  21847-3 0  9992
2 43767  97.4073 203.5906 0009101  38.7659 321.4224 15.12433449411227
M2 PATHFINDER           
1 45727U 20037E   26160.46567137  .00002333  00000+0  17036-3 0  9991
2 45727  97.8161 351.6108 0011757 171.8469 188.2950 15.04644400324336
NETSAT-4                
1 46504U 20068U   26160.54092839  .00016354  00000+0  36525-3 0  9992
2 46504  97.8610 168.1684 0004841   9.8772 350.2568 15.43610520314594
NETSAT-3                
1 46505U 20068V   26160.54130219  .00016604  00000+0  38588-3 0  9997
2 46505  97.8659 166.3950 0005288  28.3279 331.8253 15.42413484314504
NETSAT-1                
1 46506U 20068W   26160.50619311  .00011604  00000+0  34998-3 0  9995
2 46506  97.8747 160.7785 0005918  54.1491 306.0300 15.34460416314123
NETSAT-2                
1 46507U 20068X   26160.52662170  .00020305  00000+0  42234-3 0  9999
2 46507  97.8624 168.0200 0004476  47.3203 312.8421 15.45668742314554
GREENCUBE (IO-117)      
1 53109U 22080E   26152.46502029 -.00000003  00000+0  00000+0 0  9996
2 53109  70.1435 303.7143 0008869 293.3663  66.6064  6.42583280 91055
SITRO-AIS 5 (KATYS)     
1 57176U 23091L   26160.54571429  .00011173  00000+0  39497-3 0  9990
2 57176  97.5064 224.3733 0012727 127.0918 233.1487 15.29278742163173
SITRO-AIS 6 (CHIRKIN)   
1 57192U 23091AC  26160.50710820  .00009431  00000+0  37105-3 0  9992
2 57192  97.5073 223.4940 0012994 130.1824 230.0554 15.25787932163115
SITRO-AIS 8 (ANOKHIN)   
1 57193U 23091AD  26160.51069828  .00012959  00000+0  42190-3 0  9998
2 57193  97.5061 225.8955 0011846 123.3287 236.9091 15.31922554163273
SITRO-AIS 7 (FARTUSHNIY)
1 57194U 23091AE  26160.50869405  .00009094  00000+0  36125-3 0  9994
2 57194  97.5070 223.3244 0012810 131.0270 229.2077 15.25478306163103
SITRO-AIS 10 (BURDAEV)  
1 57199U 23091AK  26160.50929735  .00018037  00000+0  47882-3 0  9991
2 57199  97.5083 230.8696 0007891 102.8746 257.3381 15.38316401163586
SITRO-AIS 9 (SHCHUKIN)  
1 57201U 23091AM  26160.53327956  .00018192  00000+0  49040-3 0  9995
2 57201  97.5081 230.6302 0008125 102.7336 257.4817 15.37838750163574
SITRO-AIS 12 (SMIRENNIY)
1 57204U 23091AQ  26160.52534487  .00017265  00000+0  46130-3 0  9993
2 57204  97.5094 231.0842 0007722  97.8271 262.3851 15.38127778163596
SITRO-AIS 11 (SHEFFER)  
1 57208U 23091AU  26160.54086553  .00018957  00000+0  49935-3 0  9990
2 57208  97.5093 231.3419 0007622  97.7360 262.4751 15.38547390163618
SITRO-AIS 25            
1 59066U 24039R   26160.60423786  .00003099  00000+0  24267-3 0  9999
2 59066  95.3912 229.8817 0144429 355.4592   4.5312 14.93473878123590
SITRO-AIS 26            
1 59067U 24039S   26160.60457808  .00003170  00000+0  24926-3 0  9994
2 59067  95.3913 229.7811 0144778 356.0336   3.9729 14.93271006123588
SITRO-AIS 27            
1 59068U 24039T   26160.64393465  .00002739  00000+0  21394-3 0  9993
2 59068  95.3913 230.0765 0143848 354.4793   5.4838 14.93687919123614
SITRO-AIS 28            
1 59071U 24039U   26160.62154707  .00002704  00000+0  21107-3 0  9993
2 59071  95.3917 230.1078 0143699 354.4588   5.5039 14.93723827123619
GRBBETA                 
1 60237U 24128C   26160.52120619  .00003281  00000+0  23080-3 0  9995
2 60237  61.9898 243.1615 0041673 133.0330 227.4266 15.06588239105111
OOV-CUBE (TUBSAT-30)    
1 60240U 24128F   26160.53649287  .00002156  00000+0  17279-3 0  9990
2 60240  61.9950 252.2499 0045583 132.0465 228.4520 15.02741636104961
ROBUSTA-3A (MEDITERRAN*)
1 60243U 24128J   26160.52772934  .00006234  00000+0  37064-3 0  9993
2 60243  61.9859 235.3282 0042180 126.5118 233.9874 15.11585372105267
LASARSAT                
1 62391U 24247Q   26160.41706011  .00031151  00000+0  63095-3 0  9991
2 62391  44.9749 305.8624 0008376 288.2442  71.7536 15.45882865 82115
CROCUBE                 
1 62394U 24247T   26160.55331603  .00034818  00000+0  66095-3 0  9996
2 62394  44.9723 302.5533 0008206 292.5948  67.4074 15.47713214 82161
FORESAIL-1 PRIME        
1 66778U 25276DS  26160.48519139  .00004812  00000+0  23562-3 0  9996
2 66778  97.4201 233.8975 0003758 119.3336 240.8275 15.18631711 29233
KNACKSAT-2              
1 67683U 98067XZ  26160.21299138  .00044471  00000+0  55732-3 0  9994
2 67683  51.6310 334.5675 0010139 180.3402 179.7586 15.59248117 19032
